{
    "links": {
        "self": "http://www.neowsapp.com/rest/v1/neo/3177206?api_key=iIulBulltgU6a56xZRHN4H3l9WmuAYTsLGpBGhQ2"
    },
    "id": "3177206",
    "neo_reference_id": "3177206",
    "name": "(2004 FY1)",
    "designation": "2004 FY1",
    "nasa_jpl_url": "http://ssd.jpl.nasa.gov/sbdb.cgi?sstr=3177206",
    "absolute_magnitude_h": 26.3,
    "estimated_diameter": {
        "kilometers": {
            "estimated_diameter_min": 0.0146067964,
            "estimated_diameter_max": 0.0326617897
        },
        "meters": {
            "estimated_diameter_min": 14.6067964271,
            "estimated_diameter_max": 32.6617897446
        },
        "miles": {
            "estimated_diameter_min": 0.0090762397,
            "estimated_diameter_max": 0.020295089
        },
        "feet": {
            "estimated_diameter_min": 47.92256199,
            "estimated_diameter_max": 107.1581062656
        }
    },
    "is_potentially_hazardous_asteroid": false,
    "close_approach_data": [
        {
            "close_approach_date": "2004-03-20",
            "close_approach_date_full": "2004-Mar-20 01:47",
            "epoch_date_close_approach": 1079747220000,
            "relative_velocity": {
                "kilometers_per_second": "15.6612187808",
                "kilometers_per_hour": "56380.3876108249",
                "miles_per_hour": "35032.5802907373"
            },
            "miss_distance": {
                "astronomical": "0.0080549131",
                "lunar": "3.1333611959",
                "kilometers": "1204997.842795097",
                "miles": "748750.9394704586"
            },
            "orbiting_body": "Earth"
        },
        {
            "close_approach_date": "2004-03-20",
            "close_approach_date_full": "2004-Mar-20 06:36",
            "epoch_date_close_approach": 1079764560000,
            "relative_velocity": {
                "kilometers_per_second": "15.714811927",
                "kilometers_per_hour": "56573.3229372162",
                "miles_per_hour": "35152.4627995164"
            },
            "miss_distance": {
                "astronomical": "0.0083346796",
                "lunar": "3.2421903644",
                "kilometers": "1246850.315292452",
                "miles": "774756.8599697576"
            },
            "orbiting_body": "Moon"
        }
    ],
    "orbital_data": {
        "orbit_id": "6",
        "orbit_determination_date": "2017-04-06 09:13:04",
        "first_observation_date": "2004-03-17",
        "last_observation_date": "2004-03-19",
        "data_arc_in_days": 2,
        "observations_used": 22,
        "orbit_uncertainty": "8",
        "minimum_orbit_intersection": ".000407452",
        "jupiter_tisserand_invariant": "3.643",
        "epoch_osculation": "2453083.5",
        "eccentricity": ".588039712868683",
        "semi_major_axis": "1.953145485697259",
        "inclination": "8.975687133139719",
        "ascending_node_longitude": "180.2561785254787",
        "orbital_period": "997.0118453533084",
        "perihelion_distance": ".8046183750970786",
        "perihelion_argument": "61.42469471133094",
        "aphelion_distance": "3.10167259629744",
        "perihelion_time": "2453126.145278073416",
        "mean_anomaly": "344.6016873540862",
        "mean_motion": ".3610789597714636",
        "equinox": "J2000",
        "orbit_class": {
            "orbit_class_type": "APO",
            "orbit_class_description": "Near-Earth asteroid orbits which cross the Earth’s orbit similar to that of 1862 Apollo",
            "orbit_class_range": "a (semi-major axis) > 1.0 AU; q (perihelion) < 1.017 AU"
        }
    },
    "is_sentry_object": false
}